#dP2022 10 17  0  0  0.00000000      96 __u+U ITR00 EXT  IAC
## 2232  86400.00000000   900.00000000 59869 0.0000000000000
+  118   C06C07C08C09C10C11C12C13C14C16C19C20C21C22C23C24C25
+        C26C27C28C29C30C32C33C34C35C36C37C38C39C40C41C42C43
+        C44C45C46E01E02E03E04E05E07E08E09E10E11E12E13E14E15
+        E18E19E21E24E25E26E27E30E31E33E34E36G01G02G03G04G05
+        G06G07G08G09G10G11G12G13G14G15G16G17G18G19G20G21G22
+        G23G24G25G26G27G28G29G30G31G32J02J03J04R01R02R03R04
+        R05R07R08R09R11R12R13R14R15R17R18R19R20R21R22R24  0
++        11  9  9  9 10  9  9  8 10 11  8  8  9  9  8  8  8
++         8  9  9  8  8  9  8  8  8  8  9 10 10 10  8  8  9
++         9  9  9 10  8  7  9  7  8  8  8  7  8  8  8  9  8
++         8  9  8  8  8  8  8  8  7  7  8  8  8  8  8  7  8
++         8  7  8  7  8  8  7  7  7  8  8  7  7  8  8  7  8
++         8  8  8  8  8  8  8  7  7  7  9 11  8  9  9 10  8
++         8  8  9 10  9  8  8  8  7  9  9 10 10  8  8  8  0
%c M  cc GPS ccc cccc cccc cccc cccc ccccc ccccc ccccc ccccc
%c cc cc ccc ccc cccc cccc cccc cccc ccccc ccccc ccccc ccccc
%f  0.0000000  0.000000000  0.00000000000  0.000000000000000
%f  0.0000000  0.000000000  0.00000000000  0.000000000000000
%i    0    0    0    0      0      0      0      0         0
%i    0    0    0    0      0      0      0      0         0
/* IAC                                ULTRA-RAPID PREDICTION
/* S/V CLOCKS ARE ALIGNED TO GNSS TIME                      
/* G:C1WC2W R:C1PC2P E:C1XC5X C:C2IC6I J:C1CC2S             
/* PCV:IGS14_2218 OL/AL:FES2004  NONE     YN ORB:CoN CLK:CoN
*  2022 10 17 10 15  0.00000000
PC06 -13561.150599  24049.622034  31814.704448    892.584563
PC07 -13247.438804  40121.557472   -288.283459   -288.654669
PC08    600.457679  29435.023156 -30105.374718    495.953827
PC09  -2089.054339  24669.884780  34476.207958   -832.411689
PC10  -7668.860408  41147.432638  -6694.434565     82.434170
PC11   3364.033078  14942.217456 -23255.416044   -346.452308
PC12 -16498.648143  14606.028223 -17095.285752   -478.785148
PC13   7740.147459  33727.719763 -23761.980696    109.145293
PC14    527.214606  25202.828972  12035.230582    577.396808
PC16 -18482.264615  22820.229570  30339.639610    128.241539
PC19  -7381.626908 -19140.486932 -18897.202923   -895.932648
PC20   5236.771115 -26951.563385  -4922.297129    862.188591
PC21 -15658.778050  19063.999425 -13053.524276   -621.863149
PC22 -16354.548749     96.676159 -22623.962912   -845.975355
PC23  22127.259655   9938.238673 -13782.942075   -598.172291
PC24    875.199338  20919.461666  18427.740100   -653.872033
PC25  17740.182359  21399.005190   2323.637448     10.961221
PC26 -13693.525671   9049.205132  22560.071455    -22.704740
PC27  23279.384275 -11648.150127  10050.161028     37.215766
PC28  27064.499690   -522.897127  -6757.485201     25.279706
PC29 -15014.564474 -11222.665775  20670.611272     27.957717
PC30   6387.571741 -16775.656450  21366.240177      0.553021
PC32  15551.908226 -19079.812950  13147.758286   -755.840463
PC33   7443.418916  19210.793017  18822.663319   -934.613824
PC34  -5063.745223  16765.391903 -21730.607085     18.616332
PC35 -26684.110727    424.400379   8104.355624     45.765090
PC36 -16907.287969 -22017.344012  -2877.809638   -728.439476
PC37  14781.065322  -7580.464661 -22403.898416   -535.925060
PC38  -7135.519307  25645.998496 -32634.221124     31.670249
PC39 -22740.971836  22736.407304  27186.324603     -0.660766
PC40 -19810.110302  37245.079027   2796.522985     -6.216077
PC41  16260.087833    516.255954  22716.210360   -181.619395
PC42  -5967.842651  27006.090812   3814.881736   -490.040412
PC43  14267.580386  11758.726421 -20912.894533     20.028383
PC44 -22925.397673  12465.192348  -9862.867540     84.262391
PC45 -22054.426263  -9679.213384  14121.242246    -10.870412
PC46  -2626.694030 -21639.999039 -17442.998742     -6.869470
PE01  15658.867511  18061.450568 -17445.302243   -548.081283
PE02 -15720.693914 -17905.292679  17577.729070    331.263887
PE03 -17809.792352  -5836.364271 -22923.503100   -610.612930
PE04  24907.944561 -11597.689249  11012.382188  -1138.495931
PE05    -61.211882 -20235.194303 -21608.699789   -133.702578
PE07 -17431.954699  22635.224294   7756.134711   -713.961122
PE08 -24839.398499  11743.525104 -11031.902947   -616.812184
PE09  17506.953451 -22604.920917  -7643.748530   -696.264064
PE10  20529.128144  -6909.913226  20160.409582   -484.277437
PE11  10528.157016 -13121.549659  24346.442659   1751.415125
PE12  26548.867835    -88.468573  13094.095859   -226.862055
PE13 -11382.080602  12650.857753 -24215.891082    430.674684
PE14  -3213.959713 -15518.484351  17719.848405     30.157471
PE15 -26641.616683    -70.782645 -12900.183819    713.504375
PE18    235.176206  22535.777444 -23044.042912   -851.545474
PE19  15773.714780   8110.836715  23696.419061  -4243.480849
PE21   6833.650934  28752.513158  -1617.992695   -763.936512
PE24   7345.938785 -23147.604345 -16946.782218   -895.952733
PE25  -6657.325780 -28814.945464   1346.825175   -590.403743
PE26  11233.845269  17973.551375 -20651.828325  -1737.146148
PE27  -6601.391432  23829.384259  16272.180725   -417.399119
PE30 -16284.863334   3952.180759  24397.311985   -923.228182
PE31  16002.790920  -4950.026239 -24391.490267   -505.946939
PE33  26084.197229  12662.453588  -5941.847382   -454.783963
PE34 -26200.573860 -12529.910146   5765.848931     -9.897478
PE36 -10402.170843 -17830.049876  21218.745573   -447.151190
PG01  21605.113956  14487.686609  -6502.135254    266.186251
PG02 -20756.416719 -13955.901124   9341.819432   -641.996087
PG03  11766.913722  19180.242641  14073.602706   -365.320410
PG04  14655.957236   7568.184752  20840.624884   -102.181986
PG05  -6641.555803 -25398.892546  -3733.284613   -100.723731
PG06  11731.643670 -10325.518215  21549.453504    493.600396
PG07  25071.648147   5129.599710  -7572.105264    297.842319
PG08   5550.342476  14637.361370 -21451.104657    -89.274145
PG09  21699.917537  -3437.085737  14876.140938   -282.017457
PG10 -11921.670723  12891.126783 -19676.321664     -7.873303
PG11   -263.433355 -16363.658373  20929.312538    -26.900947
PG12 -10272.396466 -20211.103882  13653.771444   -293.257440
PG13   3969.964785 -17546.659515 -19648.599001    407.627998
PG14  13578.640205 -10692.106446 -20129.871618    -94.149120
PG15  -7826.906353 -14460.800385 -21266.772034    -20.193278
PG16   -404.570955  26244.897142   1498.928306   -526.314866
PG17  22978.867424 -13135.018156  -2151.287857    669.535976
PG18 -24461.032084  -3876.780566  -9790.888771     11.651528
PG19  18791.479615 -16889.807304   7516.911257    224.951538
PG20    635.065096 -24673.107745  10121.913251    477.684390
PG21  16921.406673  15570.968852 -13301.254058    157.870635
PG22 -15983.157774  18520.652758  10540.994033    347.279643
PG23 -14981.174051   1198.894259 -21910.815847     -1.036286
PG24 -19760.251922 -14912.471801 -10500.384218     96.518161
PG25 -15115.039821  -9099.872930  19642.242347    383.260198
PG26  -5022.441690  22892.717326  12088.026936    232.763405
PG27  -6599.962155  19349.068304 -16950.616778    196.521919
PG28   9660.496291 -19747.174529 -14578.100042    327.894779
PG29 -21226.976391    664.529479  15959.542736   -560.280328
PG30  20063.010321  -4550.072592 -16843.430867   -537.206199
PG31 -11293.327903  11259.939984  21152.892429   -197.080504
PG32 -21160.442832  15871.686157    -43.178940   -266.099130
PJ02 -26178.217064  25585.950482  25869.743181     -7.445316
PJ03 -33082.079845  17048.297147 -15181.548122     -3.033671
PJ04 -21532.447848  32674.801904 -10604.175604    111.897429
PR01  -5561.442046 -12037.018729 -21796.262346     16.389039
PR02 -14431.249937   6680.562919 -19884.819043    -23.021102
PR03 -14291.260019  20212.551508  -5984.256099     65.632490
PR04  -6405.655680  22118.705434  10975.159943    161.490054
PR05   5040.329891  11987.298251  21942.155570    101.391757
PR07  14165.318512 -20578.286247   5321.927841     42.720379
PR08   6246.438586 -22164.705063 -10959.688683    -67.658685
PR09  15268.761519   5862.533559 -19581.824233     82.502059
PR11  -5995.518850 -21077.110369 -13031.936947     24.321279
PR12 -15254.882476 -19718.391683   5470.997015     22.109564
PR13 -15437.549158  -7470.888917  18871.692822    -27.884063
PR14  -5991.902039  10834.168643  22319.405911     24.207056
PR15   6363.026737  21504.426486  12180.534269     93.167165
PR17 -18355.695761   7595.036304 -16020.461313    569.862614
PR18  -1613.379835  10424.442973 -23205.286857     47.523236
PR19  14545.111111   8716.315810 -19047.511330   -207.588210
PR20  25481.168954   1001.636301  -1096.263078    -80.353241
PR21  17027.237722  -7948.748186  17233.299269   -342.253322
PR22   1251.890402 -10823.000206  23092.105075     14.483026
PR24 -25517.799181      2.194803    460.033360    120.874665
EOF
